YAOGAN-35 01A           
1 49390U 21101A   26068.78009532  .00012075  00000+0  47335-3 0  9995
2 49390  34.9903 183.8731 0005688 189.0601 171.0012 15.24952145241689
STARLINK-32797          
1 62843U 25019Q   26068.44081529  .00022869  00000+0  83783-3 0  9993
2 62843  43.0038  90.3174 0001649 276.4887  83.5777 15.27586348 62216
